{
  "type": "FeatureCollection",
  "features": [
    {
      "type": "Feature",
      "properties": {
        "norad_id": 34814,
        "name": "COSMOS 2251 DEB",
        "group": "cosmos-2251-debris",
        "lat": 68.51502277491431,
        "lon": 100.36762711261909,
        "alt_km": 777.3014220790583,
        "timestamp": "2025-12-11T13:55:02.561468+00:00",
        "meta_object_name": "COSMOS 2251 DEB",
        "meta_object_id": "1993-036ABD",
        "meta_epoch": "2025-12-11T05:08:08.589120",
        "meta_mean_motion": 14.36882836,
        "meta_eccentricity": 0.0056325,
        "meta_inclination": 73.8959,
        "meta_ra_of_asc_node": 328.2668,
        "meta_arg_of_pericenter": 218.0941,
        "meta_mean_anomaly": 154.8989,
        "meta_ephemeris_type": 0,
        "meta_classification_type": "U",
        "meta_norad_cat_id": 34814,
        "meta_element_set_no": 999,
        "meta_rev_at_epoch": 87311,
        "meta_bstar": 0.00121995,
        "meta_mean_motion_dot": 3.649e-05,
        "meta_mean_motion_ddot": 0,
        "tle_line1": "1 34814U 93036ABD 25345.21398830  .00003649  00000+0  12200-2 0  9992",
        "tle_line2": "2 34814  73.8959 328.2668 0056325 218.0941 154.8989 14.36882836873117"
      },
      "geometry": {
        "type": "Point",
        "coordinates": [
          100.36762711261909,
          68.51502277491431
        ]
      }
    },
    {
      "type": "Feature",
      "properties": {
        "norad_id": 34815,
        "name": "COSMOS 2251 DEB",
        "group": "cosmos-2251-debris",
        "lat": 73.92741018020115,
        "lon": -32.71628308613436,
        "alt_km": 656.2343628053859,
        "timestamp": "2025-12-11T13:55:02.561478+00:00",
        "meta_object_name": "COSMOS 2251 DEB",
        "meta_object_id": "1993-036ABE",
        "meta_epoch": "2025-12-11T03:46:30.732960",
        "meta_mean_motion": 14.78278256,
        "meta_eccentricity": 0.00588695,
        "meta_inclination": 74.0447,
        "meta_ra_of_asc_node": 244.9077,
        "meta_arg_of_pericenter": 314.3657,
        "meta_mean_anomaly": 45.2703,
        "meta_ephemeris_type": 0,
        "meta_classification_type": "U",
        "meta_norad_cat_id": 34815,
        "meta_element_set_no": 999,
        "meta_rev_at_epoch": 88604,
        "meta_bstar": 0.0014141563,
        "meta_mean_motion_dot": 0.00010555,
        "meta_mean_motion_ddot": 0,
        "tle_line1": "1 34815U 93036ABE 25345.15730015  .00010555  00000+0  14142-2 0  9992",
        "tle_line2": "2 34815  74.0447 244.9077 0058869 314.3657  45.2703 14.78278256886044"
      },
      "geometry": {
        "type": "Point",
        "coordinates": [
          -32.71628308613436,
          73.92741018020115
        ]
      }
    },
    {
      "type": "Feature",
      "properties": {
        "norad_id": 34816,
        "name": "COSMOS 2251 DEB",
        "group": "cosmos-2251-debris",
        "lat": 2.3534187123238164,
        "lon": -35.66606834514302,
        "alt_km": 806.7304346751434,
        "timestamp": "2025-12-11T13:55:02.561488+00:00",
        "meta_object_name": "COSMOS 2251 DEB",
        "meta_object_id": "1993-036ABF",
        "meta_epoch": "2025-12-11T05:05:32.918784",
        "meta_mean_motion": 13.58314937,
        "meta_eccentricity": 0.0373498,
        "meta_inclination": 73.8863,
        "meta_ra_of_asc_node": 145.6144,
        "meta_arg_of_pericenter": 210.3453,
        "meta_mean_anomaly": 331.9387,
        "meta_ephemeris_type": 0,
        "meta_classification_type": "U",
        "meta_norad_cat_id": 34816,
        "meta_element_set_no": 999,
        "meta_rev_at_epoch": 82762,
        "meta_bstar": 0.0017108749,
        "meta_mean_motion_dot": 1.937e-05,
        "meta_mean_motion_ddot": 0,
        "tle_line1": "1 34816U 93036ABF 25345.21218656  .00001937  00000+0  17109-2 0  9992",
        "tle_line2": "2 34816  73.8863 145.6144 0373498 210.3453 331.9387 13.58314937827629"
      },
      "geometry": {
        "type": "Point",
        "coordinates": [
          -35.66606834514302,
          2.3534187123238164
        ]
      }
    },
    {
      "type": "Feature",
      "properties": {
        "norad_id": 34818,
        "name": "COSMOS 2251 DEB",
        "group": "cosmos-2251-debris",
        "lat": 3.3693732693009077,
        "lon": 118.10570635545452,
        "alt_km": 787.0220223815941,
        "timestamp": "2025-12-11T13:55:02.561499+00:00",
        "meta_object_name": "COSMOS 2251 DEB",
        "meta_object_id": "1993-036ABH",
        "meta_epoch": "2025-12-11T07:00:52.985952",
        "meta_mean_motion": 14.36964874,
        "meta_eccentricity": 0.00240982,
        "meta_inclination": 74.0356,
        "meta_ra_of_asc_node": 299.6,
        "meta_arg_of_pericenter": 15.6095,
        "meta_mean_anomaly": 113.4495,
        "meta_ephemeris_type": 0,
        "meta_classification_type": "U",
        "meta_norad_cat_id": 34818,
        "meta_element_set_no": 999,
        "meta_rev_at_epoch": 87349,
        "meta_bstar": 0.00039822572,
        "meta_mean_motion_dot": 1.157e-05,
        "meta_mean_motion_ddot": 0,
        "tle_line1": "1 34818U 93036ABH 25345.29227993  .00001157  00000+0  39823-3 0  9998",
        "tle_line2": "2 34818  74.0356 299.6000 0024098  15.6095 113.4495 14.36964874873496"
      },
      "geometry": {
        "type": "Point",
        "coordinates": [
          118.10570635545452,
          3.3693732693009077
        ]
      }
    },
    {
      "type": "Feature",
      "properties": {
        "norad_id": 34819,
        "name": "COSMOS 2251 DEB",
        "group": "cosmos-2251-debris",
        "lat": -17.676885379259655,
        "lon": 139.64996684292305,
        "alt_km": 687.6815620937077,
        "timestamp": "2025-12-11T13:55:02.561510+00:00",
        "meta_object_name": "COSMOS 2251 DEB",
        "meta_object_id": "1993-036ABJ",
        "meta_epoch": "2025-12-09T21:41:51.224640",
        "meta_mean_motion": 14.63892789,
        "meta_eccentricity": 0.00157861,
        "meta_inclination": 74.0186,
        "meta_ra_of_asc_node": 148.1101,
        "meta_arg_of_pericenter": 242.0271,
        "meta_mean_anomaly": 271.3932,
        "meta_ephemeris_type": 0,
        "meta_classification_type": "U",
        "meta_norad_cat_id": 34819,
        "meta_element_set_no": 999,
        "meta_rev_at_epoch": 88187,
        "meta_bstar": 0.0022468866,
        "meta_mean_motion_dot": 0.00011759,
        "meta_mean_motion_ddot": 0,
        "tle_line1": "1 34819U 93036ABJ 25343.90406510  .00011759  00000+0  22469-2 0  9995",
        "tle_line2": "2 34819  74.0186 148.1101 0015786 242.0271 271.3932 14.63892789881870"
      },
      "geometry": {
        "type": "Point",
        "coordinates": [
          139.64996684292305,
          -17.676885379259655
        ]
      }
    },
    {
      "type": "Feature",
      "properties": {
        "norad_id": 34823,
        "name": "COSMOS 2251 DEB",
        "group": "cosmos-2251-debris",
        "lat": 60.531506024209975,
        "lon": 134.90215074323777,
        "alt_km": 764.5585362483625,
        "timestamp": "2025-12-11T13:55:02.561520+00:00",
        "meta_object_name": "COSMOS 2251 DEB",
        "meta_object_id": "1993-036ABN",
        "meta_epoch": "2025-12-10T14:30:29.359008",
        "meta_mean_motion": 14.54904355,
        "meta_eccentricity": 0.0154887,
        "meta_inclination": 74.0414,
        "meta_ra_of_asc_node": 106.322,
        "meta_arg_of_pericenter": 191.6219,
        "meta_mean_anomaly": 168.1356,
        "meta_ephemeris_type": 0,
        "meta_classification_type": "U",
        "meta_norad_cat_id": 34823,
        "meta_element_set_no": 999,
        "meta_rev_at_epoch": 88350,
        "meta_bstar": 0.0013618,
        "meta_mean_motion_dot": 6.85e-05,
        "meta_mean_motion_ddot": 0,
        "tle_line1": "1 34823U 93036ABN 25344.60450647  .00006850  00000+0  13618-2 0  9990",
        "tle_line2": "2 34823  74.0414 106.3220 0154887 191.6219 168.1356 14.54904355883502"
      },
      "geometry": {
        "type": "Point",
        "coordinates": [
          134.90215074323777,
          60.531506024209975
        ]
      }
    },
    {
      "type": "Feature",
      "properties": {
        "norad_id": 34845,
        "name": "COSMOS 2251 DEB",
        "group": "cosmos-2251-debris",
        "lat": 66.54939835570643,
        "lon": -168.15192044092612,
        "alt_km": 740.5358487130407,
        "timestamp": "2025-12-11T13:55:02.561530+00:00",
        "meta_object_name": "COSMOS 2251 DEB",
        "meta_object_id": "1993-036ABP",
        "meta_epoch": "2025-12-09T20:04:05.418048",
        "meta_mean_motion": 14.45850049,
        "meta_eccentricity": 0.00222586,
        "meta_inclination": 74.0237,
        "meta_ra_of_asc_node": 153.7694,
        "meta_arg_of_pericenter": 315.2139,
        "meta_mean_anomaly": 44.7222,
        "meta_ephemeris_type": 0,
        "meta_classification_type": "U",
        "meta_norad_cat_id": 34845,
        "meta_element_set_no": 999,
        "meta_rev_at_epoch": 87424,
        "meta_bstar": 0.00046671234,
        "meta_mean_motion_dot": 1.636e-05,
        "meta_mean_motion_ddot": 0,
        "tle_line1": "1 34845U 93036ABP 25343.83617382  .00001636  00000+0  46671-3 0  9992",
        "tle_line2": "2 34845  74.0237 153.7694 0022258 315.2139  44.7222 14.45850049874243"
      },
      "geometry": {
        "type": "Point",
        "coordinates": [
          -168.15192044092612,
          66.54939835570643
        ]
      }
    }
  ]
}